[
    {
        "Altitude(m)": 604969.0890852124,
        "Argument of Periapsis(deg)": 0.0,
        "Eccentricity": 0.0,
        "Inclination(deg)": 60.0,
        "Latitude(deg)": -0.09261801504146745,
        "Longitude(deg)": 174.97752745633093,
        "Mean Anomaly(deg)": 0.0,
        "RAAN(deg)": 275.0,
        "Satellite Name": "Test1 1210",
        "Satellite Number": 1210,
        "Semi-Major Axis(m)": 6980739.136638005,
        "Time(s)": 0
    },
    {
        "Altitude(m)": 604900.0288773746,
        "Argument of Periapsis(deg)": 0.00010418945913296404,
        "Eccentricity": 0.0,
        "Inclination(deg)": 60.0,
        "Latitude(deg)": 0.4478074442555399,
        "Longitude(deg)": 175.24565135414102,
        "Mean Anomaly(deg)": 0.620106145461853,
        "RAAN(deg)": 274.9995799508602,
        "Satellite Name": "Test1 1210",
        "Satellite Number": 1210,
        "Semi-Major Axis(m)": 6980739.136638005,
        "Time(s)": 10
    }
]